$$SOE
2459577.833333333, A.D. 2021-Dec-29 08:00:00.0000,  6.704209311605369E-01,  8.752638664778671E+03,  6.327529199078958E+01,  2.380390077318416E+02,  2.685221164800258E+02,  2.459578003260212E+06,  8.358386522608762E-03,  2.372848248482531E+02,  1.960231601499691E+02,  2.655702225144052E+04,  4.436140583810238E+04,  4.307051355261317E+04,
2459578.166666667, A.D. 2021-Dec-29 16:00:00.0000,  6.703915079770197E-01,  8.753438877192353E+03,  6.327558261435522E+01,  2.380097126458835E+02,  2.685080704403894E+02,  2.459578003266901E+06,  8.358359566281408E-03,  1.180011451850665E+02,  1.624959090912966E+02,  2.655707935031621E+04,  4.436071982344006E+04,  4.307065245820266E+04,
2459578.500000000, A.D. 2021-Dec-30 00:00:00.0000,  6.701590144133066E-01,  8.756101487838518E+03,  6.327498892031048E+01,  2.379754737793216E+02,  2.685139493039200E+02,  2.459578501810426E+06,  8.363388400734329E-03,  3.586917917450271E+02,  3.511039670238531E+02,  2.654643258558029E+04,  4.433676368332207E+04,  4.304475444048383E+04,
2459578.833333333, A.D. 2021-Dec-30 08:00:00.0000,  6.703613488287824E-01,  8.754251434213274E+03,  6.327506092358195E+01,  2.379393032675914E+02,  2.685148867090542E+02,  2.459579000352783E+06,  8.358342927201489E-03,  2.393850962763013E+02,  1.966797419364543E+02,  2.655711459535803E+04,  4.435997775650278E+04,  4.307073819960315E+04,
2459579.166666667, A.D. 2021-Dec-30 16:00:00.0000,  6.703369934069935E-01,  8.754943669879765E+03,  6.327505156662047E+01,  2.379108239151205E+02,  2.685000050209029E+02,  2.459579000359252E+06,  8.358277875083855E-03,  1.200997658854146E+02,  1.631575641824955E+02,  2.655725239043397E+04,  4.435956111098816E+04,  4.307107341730826E+04,
2459579.500000000, A.D. 2021-Dec-31 00:00:00.0000,  6.700929162672122E-01,  8.757559780247906E+03,  6.327406176543415E+01,  2.378754175112592E+02,  2.685018074106363E+02,  2.459579498905530E+06,  8.363812961073767E-03,  7.909006612589951E-01,  5.387545386022913E+00,  2.654553421878388E+04,  4.433350865731985E+04,  4.304256942084729E+04,
2459579.833333333, A.D. 2021-Dec-31 08:00:00.0000,  6.703065418640480E-01,  8.755766029571658E+03,  6.327410561555643E+01,  2.378412595097049E+02,  2.685061634796627E+02,  2.459579997453127E+06,  8.358258329056817E-03,  2.414803135228828E+02,  1.973428455992510E+02,  2.655729379368254E+04,  4.435882155779343E+04,  4.307117414024986E+04,
2459580.166666667, A.D. 2021-Dec-31 16:00:00.0000,  6.702772134459002E-01,  8.756641314258914E+03,  6.327288470012540E+01,  2.378117990372464E+02,  2.684928405326965E+02,  2.459579997457807E+06,  8.358120306188561E-03,  1.221927554257026E+02,  1.638092038746231E+02,  2.655758616434643E+04,  4.435853101443395E+04,  4.307188540148758E+04,
2459580.500000000, A.D. 2022-Jan-01 00:00:00.0000,  6.700547614987400E-01,  8.759031095306616E+03,  6.327072998737855E+01,  2.377763618582507E+02,  2.684928634684018E+02,  2.459580496012738E+06,  8.363156285662579E-03,  2.881103132884780E+00,  1.934600077254292E+01,  2.654692377163423E+04,  4.433481644796184E+04,  4.304594912535210E+04,
2459580.833333333, A.D. 2022-Jan-01 08:00:00.0000,  6.702533060315806E-01,  8.757253786796031E+03,  6.326917541953998E+01,  2.377442200022094E+02,  2.685013913868330E+02,  2.459580994567489E+06,  8.358152447359393E-03,  2.435656622202597E+02,  1.980114539739587E+02,  2.655751807972555E+04,  4.435778237265507E+04,  4.307171976909029E+04,
2459581.166666667, A.D. 2022-Jan-01 16:00:00.0000,  6.702358570854116E-01,  8.757820041914418E+03,  6.326867290473476E+01,  2.377160523590026E+02,  2.684878506850021E+02,  2.459580994569412E+06,  8.358005206889873E-03,  1.242768744389782E+02,  1.644512651866267E+02,  2.655782998269390E+04,  4.435783992347338E+04,  4.307247855065179E+04,
2459581.500000000, A.D. 2022-Jan-02 00:00:00.0000,  6.701661164612028E-01,  8.760199547162454E+03,  6.326937150473342E+01,  2.376771615219340E+02,  2.684887565507220E+02,  2.459581493120051E+06,  8.357250516718134E-03,  4.967780258813664E+00,  3.244083579398546E+01,  2.655942880450612E+04,  4.435865806184979E+04,  4.307636815240174E+04,
2459581.833333333, A.D. 2022-Jan-02 08:00:00.0000,  6.702022439959616E-01,  8.758804649401865E+03,  6.326764184392995E+01,  2.376454769220980E+02,  2.684948328182923E+02,  2.459581991672643E+06,  8.357873641188909E-03,  2.456599732047852E+02,  1.986920419080249E+02,  2.655810868917681E+04,  4.435741272895176E+04,  4.307315657727388E+04,
2459582.166666667, A.D. 2022-Jan-02 16:00:00.0000,  6.702032401241582E-01,  8.758781903033247E+03,  6.326728848249065E+01,  2.376168614795451E+02,  2.684843807905017E+02,  2.459581991667659E+06,  8.357868332468349E-03,  1.263702528550483E+02,  1.650893332163321E+02,  2.655811993523120E+04,  4.435745796742915E+04,  4.307318393632559E+04,
2459582.500000000, A.D. 2022-Jan-03 00:00:00.0000,  6.702001626071221E-01,  8.761026127397847E+03,  6.326938914703918E+01,  2.375772370365778E+02,  2.684872217338777E+02,  2.459582490221042E+06,  8.354774054137804E-03,  7.058965079757037E+00,  4.432297831694579E+01,  2.656467691632358E+04,  4.436832770524932E+04,  4.308913654244253E+04,
2459582.833333333, A.D. 2022-Jan-03 08:00:00.0000,  6.702033038647327E-01,  8.758657548269461E+03,  6.326615893960185E+01,  2.375457583012569E+02,  2.684922169622856E+02,  2.459582988778382E+06,  8.358043906614935E-03,  2.477476912177116E+02,  1.993777427291334E+02,  2.655774800326401E+04,  4.435683845825856E+04,  4.307227911486319E+04,
2459583.166666667, A.D. 2022-Jan-03 16:00:00.0000,  6.702069860656852E-01,  8.758629508286002E+03,  6.326026163610203E+01,  2.375185248747815E+02,  2.684822017173844E+02,  2.459582988815458E+06,  8.357944065548772E-03,  1.284310466789833E+02,  1.657120631676127E+02,  2.655795950253350E+04,  4.435728949678100E+04,  4.307279364119109E+04,
2459583.500000000, A.D. 2022-Jan-04 00:00:00.0000,  6.702047212558335E-01,  8.761600526580312E+03,  6.326285220995995E+01,  2.374791512763107E+02,  2.684872272046446E+02,  2.459583487377163E+06,  8.353779267553726E-03,  9.110741595606493E+00,  5.464555566534045E+01,  2.656678579494460E+04,  4.437197106330888E+04,  4.309426769249798E+04,
2459583.833333333, A.D. 2022-Jan-04 08:00:00.0000,  6.701962958653989E-01,  8.758902215707842E+03,  6.325805366555465E+01,  2.374469470377265E+02,  2.684907571005185E+02,  2.459583985943519E+06,  8.357960100052741E-03,  2.497959495985652E+02,  2.000606575984023E+02,  2.655792553540611E+04,  4.435694885510437E+04,  4.307271100728613E+04,
2459584.166666667, A.D. 2022-Jan-04 16:00:00.0000,  6.702117262510536E-01,  8.758561765974609E+03,  6.325726311564573E+01,  2.374176763311762E+02,  2.684773159251333E+02,  2.459583985947581E+06,  8.357860834177208E-03,  1.305007174788805E+02,  1.663311359353342E+02,  2.655813581971724E+04,  4.435770987345987E+04,  4.307322257961959E+04,
2459584.500000000, A.D. 2022-Jan-05 00:00:00.0000,  6.702304832998007E-01,  8.761808662214911E+03,  6.326185532653076E+01,  2.373786397772857E+02,  2.684855487872010E+02,  2.459584484513804E+06,  8.352502822431104E-03,  1.117570979746584E+01,  6.374926069518415E+01,  2.656949238331349E+04,  4.437717610441206E+04,  4.310085343918714E+04,
2459584.833333333, A.D. 2022-Jan-05 08:00:00.0000,  6.701960015723458E-01,  8.758975604523961E+03,  6.325670214120802E+01,  2.373455619929373E+02,  2.684862816431150E+02,  2.459584983085104E+06,  8.357866243954237E-03,  2.518613047287884E+02,  2.007593285150788E+02,  2.655812435956666E+04,  4.435727311460935E+04,  4.307319469971302E+04,
2459585.166666667, A.D. 2022-Jan-05 16:00:00.0000,  6.702080645935544E-01,  8.758742806993194E+03,  6.325660883493406E+01,  2.373163638473772E+02,  2.684735972135591E+02,  2.459584983087698E+06,  8.357740895942659E-03,  1.325639906891309E+02,  1.669420297685608E+02,  2.655838990179869E+04,  4.435803699660419E+04,  4.307384070434215E+04,
2459585.500000000, A.D. 2022-Jan-06 00:00:00.0000,  6.702357485354665E-01,  8.762311779548589E+03,  6.326273728253558E+01,  2.372777535216360E+02,  2.684852325970605E+02,  2.459585481657570E+06,  8.351583431364318E-03,  1.323547239236452E+01,  7.166553411503091E+01,  2.657144229744074E+04,  4.438057281533289E+04,  4.310559823278808E+04,
2459585.833333333, A.D. 2022-Jan-06 08:00:00.0000,  6.701783180562784E-01,  8.759511241963923E+03,  6.325763095648804E+01,  2.372439188215951E+02,  2.684832466833984E+02,  2.459585980232618E+06,  8.357771788646263E-03,  2.539223400826108E+02,  2.014684287224202E+02,  2.655832445684569E+04,  4.435713767172745E+04,  4.307368149116577E+04,
2459586.166666667, A.D. 2022-Jan-06 16:00:00.0000,  6.701968630207550E-01,  8.759081549863065E+03,  6.325728812163665E+01,  2.372134405930458E+02,  2.684712424188449E+02,  2.459585980236643E+06,  8.357681860226339E-03,  1.346218118085710E+02,  1.675454815510365E+02,  2.655851496771630E+04,  4.435794838556953E+04,  4.307414496275773E+04,
2459586.500000000, A.D. 2022-Jan-07 00:00:00.0000,  6.702095569779914E-01,  8.763050664757458E+03,  6.326344433470062E+01,  2.371748424742106E+02,  2.684847822523604E+02,  2.459586478810654E+06,  8.351522049013217E-03,  1.528962859041285E+01,  7.855584237699262E+01,  2.657157249451482E+04,  4.438009432427219E+04,  4.310591505203967E+04,
2459586.833333333, A.D. 2022-Jan-07 08:00:00.0000,  6.701505667834254E-01,  8.760310772081060E+03,  6.325746304670157E+01,  2.371386903270758E+02,  2.684818203076954E+02,  2.459586977390733E+06,  8.357682342627890E-03,  2.559756108191258E+02,  2.021870013380797E+02,  2.655851394575284E+04,  4.435671711942462E+04,  4.307414247653805E+04,
2459587.166666667, A.D. 2022-Jan-07 16:00:00.0000,  6.701693103114265E-01,  8.759874238862431E+03,  6.325688217716350E+01,  2.371082050651265E+02,  2.684701225985991E+02,  2.459586977395418E+06,  8.357594661662054E-03,  1.366720456808738E+02,  1.681410223653539E+02,  2.655869969872575E+04,  4.435752515858907E+04,  4.307459437478961E+04,
